WGS F7 (USA 263)        
1 40746U 15036A   21322.52777472  .00000030  00000+0  00000+0 0  9998
2 40746   0.0137 296.4162 0000391 282.9153 203.4869  1.00269204 23110
INTELSAT 34 (IS-34)     
1 40874U 15039A   21322.43424374 -.00000273  00000+0  00000+0 0  9993
2 40874   0.0140 305.3458 0000152 356.6621 216.5361  1.00271080 22866
EUTELSAT 8 WEST B       
1 40875U 15039B   21322.39077233 -.00000053  00000+0  00000+0 0  9993
2 40875   0.0712 344.5365 0001119 247.5348 318.3149  1.00271658 22891
GSAT-6                  
1 40880U 15041A   21322.53358535 -.00000148  00000+0  00000+0 0  9990
2 40880   0.0676 274.7107 0004136 298.7920 118.8950  1.00271934 22856
INMARSAT 5-F3           
1 40882U 15042A   21322.53112350  .00000063  00000+0  00000+0 0  9991
2 40882   0.0181 297.0342 0000179 249.4852 242.0909  1.00270189 22808
MUOS-4                  
1 40887U 15044A   21322.53201542 -.00000085  00000+0  00000+0 0  9995
2 40887   2.5845 359.6068 0052545 357.2934 327.4180  1.00272352 22791
TJS-1                   
1 40892U 15046A   21322.59529348 -.00000144  00000+0  00000+0 0  9992
2 40892   0.1114  91.8356 0004720 244.5614  90.7813  1.00270779 22794
EXPRESS-AM8             
1 40895U 15048A   21322.37074884 -.00000099  00000+0  00000+0 0  9992
2 40895   0.0069 190.2457 0000390  61.3498 285.5157  1.00271093 22611
BEIDOU 20               
1 40938U 15053A   21322.34979868 -.00000153  00000+0  00000+0 0  9990
2 40938  51.8315 278.2985 0044162 196.1758 162.4017  1.00293665 22584
SKY MUSTER 1 (NBN1A)    
1 40940U 15054A   21322.58595170 -.00000266  00000+0  00000+0 0  9995
2 40940   0.0139 288.6840 0001822 312.6355 167.7345  1.00270694 22495
ARSAT 2                 
1 40941U 15054B   21322.50087850 -.00000212  00000+0  00000+0 0  9990
2 40941   0.0557  97.2324 0001977 132.1649 287.6999  1.00271305 22568
MORELOS 3               
1 40946U 15056A   21322.56347125 -.00000036  00000+0  00000+0 0  9991
2 40946   4.0231 332.1308 0000421 251.1745 284.2793  1.00272095 22529
APSTAR 9                
1 40982U 15059A   21322.54535980 -.00000253  00000+0  00000+0 0  9991
2 40982   0.0193 266.7079 0001710 283.3963 206.0447  1.00269810 22394
TURKSAT 4B              
1 40984U 15060A   21322.52704399  .00000127  00000+0  00000+0 0  9994
2 40984   0.0489 101.1286 0002351 132.5360  63.8379  1.00270235 22345
CHINASAT 2C (ZX 2C)     
1 41021U 15063A   21321.72488343 -.00000314  00000+0  00000+0 0  9998
2 41021   0.0580  80.6637 0003026 266.2175  74.5097  1.00270647 22242
GSAT-15                 
1 41028U 15065A   21322.56438236 -.00000246  00000+0  00000+0 0  9990
2 41028   0.0310 271.8968 0003344 290.2706 152.3617  1.00272958 22049
BADR-7 (ARABSAT-6B)     
1 41029U 15065B   21322.52224698  .00000157  00000+0  00000+0 0  9992
2 41029   0.0327 249.6616 0006470 349.7516  32.3875  1.00273230 22141
LAOSAT 1                
1 41034U 15067A   21322.54274326 -.00000331  00000+0  00000+0 0  9990
2 41034   0.0255  76.4454 0002598 131.7940 173.4358  1.00272573 22096
TELSTAR 12V             
1 41036U 15068A   21322.34483942 -.00000107  00000+0  00000+0 0  9998
2 41036   0.0129 288.2406 0002160 310.9864 287.5497  1.00270777 21868
CHINASAT 1C (ZX 1C)     
1 41103U 15073A   21321.02605024 -.00000141  00000+0  00000+0 0  9998
2 41103   2.8651  87.4265 0001556  85.4702 334.1955  1.00270613 21887
ELEKTRO-L 2             
1 41105U 15074A   21322.58600353 -.00000102  00000+0  00000+0 0  9990
2 41105   2.4588  90.5635 0002566 110.3904  53.4068  1.00270785 21756
COSMOS 2513             
1 41121U 15075A   21322.53306205 -.00000126  00000+0  00000+0 0  9999
2 41121   0.0589 106.8226 0004775 139.2595  83.8851  1.00271383 21769
EXPRESS-AMU1            
1 41191U 15082A   21322.59751324  .00000168  00000+0  00000+0 0  9991
2 41191   0.0178 314.2657 0002888 289.1239  65.6444  1.00271605 21512
GAOFEN 4                
1 41194U 15083A   21322.53812069 -.00000322  00000+0  00000+0 0  9996
2 41194   0.0418 290.5743 0004542 284.7124 141.9514  1.00271478 21757
BELINTERSAT-1           
1 41238U 16001A   21322.52739285  .00000119  00000+0  00000+0 0  9996
2 41238   0.0653  90.3571 0001785  80.2077 128.6016  1.00270049 21497
IRNSS-1E                
1 41241U 16003A   21322.46092253 -.00000283  00000+0  00000+0 0  9995
2 41241  29.5114  87.9197 0021591 182.7574  64.7951  1.00276504 21313
EUTELSAT 9B             
1 41310U 16005A   21322.51875824  .00000075  00000+0  00000+0 0  9991
2 41310   0.0591  80.6140 0006562 179.3788 353.5733  1.00273284 21354
SES-9                   
1 41380U 16013A   21322.39516995 -.00000333  00000+0  00000+0 0  9992
2 41380   0.0138 295.4434 0000886 238.7970 134.0069  1.00272013 20673
EUTELSAT 65 WEST A      
1 41382U 16014A   21322.50410558 -.00000264  00000+0  00000+0 0  9999
2 41382   0.0563  23.4428 0001997 216.8944 293.7410  1.00271160 20788
IRNSS-1F                
1 41384U 16015A   21322.52346803  .00000175  00000+0  00000+0 0  9995
2 41384   1.9886 174.1179 0018824 181.7386 282.7241  1.00273287 20908
BEIDOU IGSO-6           
1 41434U 16021A   21322.53247698 -.00000180  00000+0  00000+0 0  9998
2 41434  57.7922  55.0322 0044610 212.4369  77.6188  1.00282911 20710
IRNSS-1G                
1 41469U 16027A   21322.51233535 -.00000320  00000+0  00000+0 0  9991
2 41469   1.9461 177.4963 0001574 301.3890 252.8331  1.00265672 20415
JCSAT-2B                
1 41471U 16028A   21322.59529385 -.00000152  00000+0  00000+0 0  9997
2 41471   0.0192 302.5899 0002158 295.1651 188.4247  1.00271524 20358
THAICOM 8               
1 41552U 16031A   21322.53271316 -.00000109  00000+0  00000+0 0  9995
2 41552   0.1153  85.4583 0001427 187.2968  55.3618  1.00271968 19953
INTELSAT 31 (IS-31)     
1 41581U 16035A   21322.56986815 -.00000140  00000+0  00000+0 0  9996
2 41581   0.0154 259.4415 0002932 315.3639 313.1568  1.00284837 19939
BEIDOU-2 G7             
1 41586U 16037A   21322.55327104 -.00000342  00000+0  00000+0 0  9996
2 41586   1.5139  65.2131 0007119   1.4636 300.8984  1.00270393 20022
ABS-2A (MONGOLSAT-1)    
1 41588U 16038A   21322.46023479 -.00000072  00000+0  00000+0 0  9997
2 41588   0.0199 296.2059 0001624 213.0767 148.8529  1.00269350 19934
EUTELSAT 117 WEST B     
1 41589U 16038B   21322.58582171  .00000001  00000+0  00000+0 0  9991
2 41589   0.0202 128.4843 0000300 250.6157 132.6661  1.00274085 19914
BRISAT                  
1 41591U 16039A   21322.59178609 -.00000184  00000+0  00000+0 0  9996
2 41591   0.0236 290.8705 0002261 303.1936 187.3246  1.00269259 19858
ECHOSTAR 18             
1 41592U 16039B   21322.50480333 -.00000269  00000+0  00000+0 0  9992
2 41592   0.0193 302.6613 0001781 298.1701 297.3085  1.00270675 19868
MUOS-5                  
1 41622U 16041A   21322.56997984 -.00000148  00000+0  00000+0 0  9996
2 41622   6.1023 302.6365 0201079 231.7686 343.6430  1.00271879 20321
TIANTONG-1 1            
1 41725U 16048A   21322.46555510 -.00000309  00000+0  00000+0 0  9990
2 41725   2.4044 349.2005 0004276 296.1334  41.4223  1.00271006 19503
JCSAT-16                
1 41729U 16050A   21322.58673622 -.00000238  00000+0  00000+0 0  9996
2 41729   0.0665  96.9426 0000771   6.9592 309.1487  1.00270139 19302
USA 270                 
1 41744U 16052A   21295.10880506  .00000131  00000+0  00000+0 0  9994
2 41744   0.0756 109.1311 0000378 306.9333  58.4294  1.00388765  1709
INTELSAT 36 (IS-36)     
1 41747U 16053A   21322.53070715 -.00000012  00000+0  00000+0 0  9998
2 41747   0.0120 331.1542 0001778  29.0466 317.1594  1.00271924 19182
INTELSAT 33E (IS-33E)   
1 41748U 16053B   21322.51708052  .00000061  00000+0  00000+0 0  9992
2 41748   0.0280 351.3232 0002076 244.4399  68.1821  1.00270701 19481
INSAT-3DR               
1 41752U 16054A   21322.53184098 -.00000065  00000+0  00000+0 0  9993
2 41752   0.1113  96.9680 0013120 169.3701  56.9259  1.00272329 19056
GSAT-18                 
1 41793U 16060A   21322.53184098 -.00000065  00000+0  00000+0 0  9995
2 41793   0.0573 102.1315 0000936 196.2740  24.8612  1.00272410 18774
SKY MUSTER 2 (NBN1B)    
1 41794U 16060B   21322.60635490 -.00000231  00000+0  00000+0 0  9996
2 41794   0.0153 297.6175 0001763 300.9518 182.4065  1.00271467 18751
HIMAWARI-9              
1 41836U 16064A   21322.53799267 -.00000262  00000+0  00000+0 0  9996
2 41836   0.0068 142.1029 0000643 103.6793 146.4844  1.00272126 18426
SHIJIAN-17 (SJ-17)      
1 41838U 16065A   21322.68392875 -.00000349  00000+0  00000+0 0  9995
2 41838   1.5005  91.5749 0000792 230.9413  99.1729  1.00274429 18478
GOES 16                 
1 41866U 16071A   21322.57388021 -.00000236  00000+0  00000+0 0  9994
2 41866   0.0156 340.3189 0001011 291.5555 277.3871  1.00272053 18343
TIANLIAN 1-04           
1 41869U 16072A   21322.52884338  .00000044  00000+0  00000+0 0  9991
2 41869   0.0916 273.1061 0020950 209.1248 302.7541  1.00273243 18551
WGS F8 (USA 272)        
1 41879U 16075A   21322.59178660 -.00000189  00000+0  00000+0 0  9997
2 41879   0.0092 348.8363 0000088 194.6761 237.2218  1.00272082 18069
FENGYUN 4A              
1 41882U 16077A   21322.64803897 -.00000318  00000+0  00000+0 0  9990
2 41882   0.1072 290.3437 0005676 110.0215 355.4619  1.00275731 18229
ECHOSTAR 19             
1 41893U 16079A   21322.57981573 -.00000125  00000+0  00000+0 0  9990
2 41893   0.0113 325.8701 0001534 287.4583 276.1286  1.00269336 17952
JCSAT-15                
1 41903U 16082A   21322.55327104 -.00000338  00000+0  00000+0 0  9994
2 41903   0.0208 303.4637 0001686 307.0847 116.5020  1.00268259 17999
STAR ONE D1             
1 41904U 16082B   21322.50035519 -.00000198  00000+0  00000+0 0  9990
2 41904   0.0230 100.7375 0001627 121.2426 291.9404  1.00272735 18018
TJS-2                   
1 41911U 17001A   21322.51344267  .00000005  00000+0  00000+0 0  9990
2 41911   0.1693 289.3878 0005062 269.5046 110.2455  1.00273877 17963
